From: horizons@ssd.jpl.nasa.gov (Horizons Ephemeris System)
Subject: [Horizons] SMALL BODY #C(500@10)_T(Skiff (C/2007 H2)) (1/1)
Date: February 9, 2021 at 3:32:50 PM PST

Automated mail xmit by MAIL_REQUEST, PID= 14345 Tue Feb  9 15:32:50 2021
++++++++++++++++++++++++++++++++ (part 1 of 1)  +++++++++++++++++++++++++++++++


*******************************************************************************
Ephemeris / MAIL_REQUEST Tue Feb  9 15:32:50 2021 Pasadena, USA  / Horizons
*******************************************************************************
Target body name: Skiff (C/2007 H2)               {source: JPL#9}
Center body name: Sun (10)                        {source: DE431}
Center-site name: BODY CENTER
*******************************************************************************
Start time      : A.D. 2005-Apr-23 00:00:00.0000 TDB
Stop  time      : A.D. 2009-Apr-23 00:00:00.0000 TDB
Step-size       : 20160 minutes
*******************************************************************************
Center geodetic : 0.00000000,0.00000000,0.0000000 {E-lon(deg),Lat(deg),Alt(km)}
Center cylindric: 0.00000000,0.00000000,0.0000000 {E-lon(deg),Dxy(km),Dz(km)}
Center radii    : 696000.0 x 696000.0 x 696000.0 k{Equator, meridian, pole}    
Small perturbers: Yes                             {source: SB431-N16}
Output units    : AU-D
Output type     : GEOMETRIC cartesian states
Output format   : 3 (position, velocity, LT, range, range-rate)
Reference frame : Ecliptic of J2000.0
*******************************************************************************
Initial IAU76/J2000 heliocentric ecliptic osculating elements (au, days, deg.):
 EPOCH=  2454214.5 ! 2007-Apr-24.0000000 (TDB)    RMSW= n.a.                  
  EC= .9716901175219284   QR= 1.410457315048366   TP= 2454148.5548588941      
  OM= 203.7718277548188   W= 319.3027012551166    IN= 52.19103063032247       
 Equivalent ICRF heliocentric equatorial cartesian coordinates (au, au/d):
  X=-1.476917131108475E+00  Y=-7.998555204018559E-01  Z=-1.585791320639314E-01
 VX=-3.529612866512571E-04 VY=-1.670197244917140E-02 VZ= 8.110524338935807E-03
Comet physical (GM= km^3/s^2; RAD= km):                                        
  GM= n.a.                RAD= n.a.                                           
  M1=  15.9     M2=  19.1     k1=  17.    k2=  5.      PHCOF=  .030           
*******************************************************************************
           JDTDB,            Calendar Date (TDB),                      X,                      Y,                      Z,                     VX,                     VY,                     VZ,                     LT,                     RG,                     RR,
**************************************************************************************************************************************************************************************************************************************************************************
$$SOE
2454939.500000000, A.D. 2009-Apr-18 00:00:00.0000,  2.192808691176253E+00, -4.417219112836807E+00,  6.345999818485013E+00,  5.261215287322907E-03, -2.576557642189417E-03,  5.767526587906410E-03,  4.641733037343435E-02,  8.036911617227151E+00,  7.405678174061128E-03,
